O3B FM5                 
1 39188U 13031A   26116.86808744 -.00000027  00000+0  00000+0 0  9996
2 39188   0.1023 359.9005 0003139  24.8501 335.2631  5.00116477234478
O3B FM4                 
1 39189U 13031B   26116.98738203 -.00000027  00000+0  00000+0 0  9992
2 39189   0.0493 345.9938 0005148  49.1181 324.9207  5.00115203234486
O3B FM2                 
1 39190U 13031C   26116.85308440 -.00000027  00000+0  00000+0 0  9996
2 39190   0.0471 339.1380 0002788  54.4782 326.4000  5.00115983234543
O3B PFM                 
1 39191U 13031D   26113.46906767 -.00000026  00000+0  00000+0 0  9996
2 39191   0.0700 358.7224 0004841  42.5713 318.7416  5.00115912233936
O3B FM3                 
1 40079U 14038A   26116.93385093 -.00000027  00000+0  00000+0 0  9990
2 40079   0.0514 355.3202 0001418 106.1748 258.5195  5.00115621210484
O3B FM7                 
1 40080U 14038B   26116.08038862 -.00000027  00000+0  00000+0 0  9997
2 40080   0.0542 347.5637 0004216  28.9904 343.4580  5.00115631215271
O3B FM6                 
1 40081U 14038C   26116.70705411 -.00000027  00000+0  00000+0 0  9998
2 40081   0.0520 352.0546 0002637  42.0805 325.8803  5.00115711215259
O3B FM8                 
1 40082U 14038D   26116.96023134 -.00000027  00000+0  00000+0 0  9992
2 40082   0.0523 350.9831 0002700  47.3376 321.6971  5.00116018215384
O3B FM10                
1 40348U 14083A   26116.98737137 -.00000027  00000+0  00000+0 0  9994
2 40348   0.0386 337.9177 0002658  58.1762 323.9226  5.00115300207332
O3B FM11                
1 40349U 14083B   26117.00005587 -.00000027  00000+0  00000+0 0  9996
2 40349   0.0578 359.2663 0002915  22.9299 337.8151  5.00115571207345
O3B FM12                
1 40350U 14083C   26116.82722182 -.00000027  00000+0  00000+0 0  9994
2 40350   0.0570 358.9586 0002542  33.4206 327.6349  5.00115897207358
O3B FM9                 
1 40351U 14083D   26116.85405310 -.00000027  00000+0  00000+0 0  9999
2 40351   0.0590 359.0813 0002707  36.2174 324.7178  5.00115935207502
LEO 1 (LEO VANTAGE 1)   
1 43113U 18004C   26117.25426013  .00002271  00000+0  16294-3 0  9991
2 43113  99.2447  28.9018 0350184 235.6851 121.0748 14.67567999430012
O3B FM15                
1 43231U 18024A   26116.92083771 -.00000027  00000+0  00000+0 0  9999
2 43231   0.0510   4.1670 0002636  29.7949 326.0536  5.00115706148469
O3B FM16                
1 43232U 18024B   26116.77329822 -.00000027  00000+0  00000+0 0  9993
2 43232   0.0487   8.2697 0002681  24.1687 327.5766  5.00115962148370
O3B FM14                
1 43233U 18024C   26116.01451709 -.00000027  00000+0  00000+0 0  9991
2 43233   0.0471   8.2311 0002860  27.6841 324.1024  5.00115703148346
O3B FM13                
1 43234U 18024D   26116.08037929 -.00000027  00000+0  00000+0 0  9993
2 43234   0.0556 328.9915 0003580  21.8257   9.1746  5.00115553148456
