[{"OBJECT_NAME":"O3B FM5","OBJECT_ID":"2013-031A","EPOCH":"2026-04-26T20:50:02.754816","MEAN_MOTION":5.00116477,"ECCENTRICITY":0.00031393,"INCLINATION":0.1023,"RA_OF_ASC_NODE":359.9005,"ARG_OF_PERICENTER":24.8501,"MEAN_ANOMALY":335.2631,"EPHEMERIS_TYPE":0,"CLASSIFICATION_TYPE":"U","NORAD_CAT_ID":39188,"ELEMENT_SET_NO":999,"REV_AT_EPOCH":23447,"BSTAR":0,"MEAN_MOTION_DOT":-2.7e-7,"MEAN_MOTION_DDOT":0},{"OBJECT_NAME":"O3B FM4","OBJECT_ID":"2013-031B","EPOCH":"2026-04-26T23:41:49.807392","MEAN_MOTION":5.00115203,"ECCENTRICITY":0.00051488,"INCLINATION":0.0493,"RA_OF_ASC_NODE":345.9938,"ARG_OF_PERICENTER":49.1181,"MEAN_ANOMALY":324.9207,"EPHEMERIS_TYPE":0,"CLASSIFICATION_TYPE":"U","NORAD_CAT_ID":39189,"ELEMENT_SET_NO":999,"REV_AT_EPOCH":23448,"BSTAR":0,"MEAN_MOTION_DOT":-2.7e-7,"MEAN_MOTION_DDOT":0},{"OBJECT_NAME":"O3B FM2","OBJECT_ID":"2013-031C","EPOCH":"2026-04-26T20:28:26.492160","MEAN_MOTION":5.00115983,"ECCENTRICITY":0.0002788,"INCLINATION":0.0471,"RA_OF_ASC_NODE":339.138,"ARG_OF_PERICENTER":54.4782,"MEAN_ANOMALY":326.4,"EPHEMERIS_TYPE":0,"CLASSIFICATION_TYPE":"U","NORAD_CAT_ID":39190,"ELEMENT_SET_NO":999,"REV_AT_EPOCH":23454,"BSTAR":0,"MEAN_MOTION_DOT":-2.7e-7,"MEAN_MOTION_DDOT":0},{"OBJECT_NAME":"O3B PFM","OBJECT_ID":"2013-031D","EPOCH":"2026-04-23T11:15:27.446688","MEAN_MOTION":5.00115912,"ECCENTRICITY":0.0004841,"INCLINATION":0.07,"RA_OF_ASC_NODE":358.7224,"ARG_OF_PERICENTER":42.5713,"MEAN_ANOMALY":318.7416,"EPHEMERIS_TYPE":0,"CLASSIFICATION_TYPE":"U","NORAD_CAT_ID":39191,"ELEMENT_SET_NO":999,"REV_AT_EPOCH":23393,"BSTAR":0,"MEAN_MOTION_DOT":-2.6e-7,"MEAN_MOTION_DDOT":0},{"OBJECT_NAME":"O3B FM3","OBJECT_ID":"2014-038A","EPOCH":"2026-04-26T22:24:44.720352","MEAN_MOTION":5.00115621,"ECCENTRICITY":0.00014186,"INCLINATION":0.0514,"RA_OF_ASC_NODE":355.3202,"ARG_OF_PERICENTER":106.1748,"MEAN_ANOMALY":258.5195,"EPHEMERIS_TYPE":0,"CLASSIFICATION_TYPE":"U","NORAD_CAT_ID":40079,"ELEMENT_SET_NO":999,"REV_AT_EPOCH":21048,"BSTAR":0,"MEAN_MOTION_DOT":-2.7e-7,"MEAN_MOTION_DDOT":0},{"OBJECT_NAME":"O3B FM7","OBJECT_ID":"2014-038B","EPOCH":"2026-04-26T01:55:45.576768","MEAN_MOTION":5.00115631,"ECCENTRICITY":0.0004216,"INCLINATION":0.0542,"RA_OF_ASC_NODE":347.5637,"ARG_OF_PERICENTER":28.9904,"MEAN_ANOMALY":343.458,"EPHEMERIS_TYPE":0,"CLASSIFICATION_TYPE":"U","NORAD_CAT_ID":40080,"ELEMENT_SET_NO":999,"REV_AT_EPOCH":21527,"BSTAR":0,"MEAN_MOTION_DOT":-2.7e-7,"MEAN_MOTION_DDOT":0},{"OBJECT_NAME":"O3B FM6","OBJECT_ID":"2014-038C","EPOCH":"2026-04-26T16:58:09.475104","MEAN_MOTION":5.00115711,"ECCENTRICITY":0.0002637,"INCLINATION":0.052,"RA_OF_ASC_NODE":352.0546,"ARG_OF_PERICENTER":42.0805,"MEAN_ANOMALY":325.8803,"EPHEMERIS_TYPE":0,"CLASSIFICATION_TYPE":"U","NORAD_CAT_ID":40081,"ELEMENT_SET_NO":999,"REV_AT_EPOCH":21525,"BSTAR":0,"MEAN_MOTION_DOT":-2.7e-7,"MEAN_MOTION_DDOT":0},{"OBJECT_NAME":"O3B FM8","OBJECT_ID":"2014-038D","EPOCH":"2026-04-26T23:02:43.987776","MEAN_MOTION":5.00116018,"ECCENTRICITY":0.00027,"INCLINATION":0.0523,"RA_OF_ASC_NODE":350.9831,"ARG_OF_PERICENTER":47.3376,"MEAN_ANOMALY":321.6971,"EPHEMERIS_TYPE":0,"CLASSIFICATION_TYPE":"U","NORAD_CAT_ID":40082,"ELEMENT_SET_NO":999,"REV_AT_EPOCH":21538,"BSTAR":0,"MEAN_MOTION_DOT":-2.7e-7,"MEAN_MOTION_DDOT":0},{"OBJECT_NAME":"O3B FM10","OBJECT_ID":"2014-083A","EPOCH":"2026-04-26T23:41:48.886368","MEAN_MOTION":5.001153,"ECCENTRICITY":0.00026583,"INCLINATION":0.0386,"RA_OF_ASC_NODE":337.9177,"ARG_OF_PERICENTER":58.1762,"MEAN_ANOMALY":323.9226,"EPHEMERIS_TYPE":0,"CLASSIFICATION_TYPE":"U","NORAD_CAT_ID":40348,"ELEMENT_SET_NO":999,"REV_AT_EPOCH":20733,"BSTAR":0,"MEAN_MOTION_DOT":-2.7e-7,"MEAN_MOTION_DDOT":0},{"OBJECT_NAME":"O3B FM11","OBJECT_ID":"2014-083B","EPOCH":"2026-04-27T00:00:04.827168","MEAN_MOTION":5.00115571,"ECCENTRICITY":0.00029152,"INCLINATION":0.0578,"RA_OF_ASC_NODE":359.2663,"ARG_OF_PERICENTER":22.9299,"MEAN_ANOMALY":337.8151,"EPHEMERIS_TYPE":0,"CLASSIFICATION_TYPE":"U","NORAD_CAT_ID":40349,"ELEMENT_SET_NO":999,"REV_AT_EPOCH":20734,"BSTAR":0,"MEAN_MOTION_DOT":-2.7e-7,"MEAN_MOTION_DDOT":0},{"OBJECT_NAME":"O3B FM12","OBJECT_ID":"2014-083C","EPOCH":"2026-04-26T19:51:11.965248","MEAN_MOTION":5.00115897,"ECCENTRICITY":0.0002542,"INCLINATION":0.057,"RA_OF_ASC_NODE":358.9586,"ARG_OF_PERICENTER":33.4206,"MEAN_ANOMALY":327.6349,"EPHEMERIS_TYPE":0,"CLASSIFICATION_TYPE":"U","NORAD_CAT_ID":40350,"ELEMENT_SET_NO":999,"REV_AT_EPOCH":20735,"BSTAR":0,"MEAN_MOTION_DOT":-2.7e-7,"MEAN_MOTION_DDOT":0},{"OBJECT_NAME":"O3B FM9","OBJECT_ID":"2014-083D","EPOCH":"2026-04-26T20:29:50.187840","MEAN_MOTION":5.00115935,"ECCENTRICITY":0.00027079,"INCLINATION":0.059,"RA_OF_ASC_NODE":359.0813,"ARG_OF_PERICENTER":36.2174,"MEAN_ANOMALY":324.7178,"EPHEMERIS_TYPE":0,"CLASSIFICATION_TYPE":"U","NORAD_CAT_ID":40351,"ELEMENT_SET_NO":999,"REV_AT_EPOCH":20750,"BSTAR":0,"MEAN_MOTION_DOT":-2.7e-7,"MEAN_MOTION_DDOT":0},{"OBJECT_NAME":"LEO 1 (LEO VANTAGE 1)","OBJECT_ID":"2018-004C","EPOCH":"2026-04-27T06:06:08.075232","MEAN_MOTION":14.67567999,"ECCENTRICITY":0.03501844,"INCLINATION":99.2447,"RA_OF_ASC_NODE":28.9018,"ARG_OF_PERICENTER":235.6851,"MEAN_ANOMALY":121.0748,"EPHEMERIS_TYPE":0,"CLASSIFICATION_TYPE":"U","NORAD_CAT_ID":43113,"ELEMENT_SET_NO":999,"REV_AT_EPOCH":43001,"BSTAR":0.00016294137,"MEAN_MOTION_DOT":2.271e-5,"MEAN_MOTION_DDOT":0},{"OBJECT_NAME":"O3B FM15","OBJECT_ID":"2018-024A","EPOCH":"2026-04-26T22:06:00.378144","MEAN_MOTION":5.00115706,"ECCENTRICITY":0.00026361,"INCLINATION":0.051,"RA_OF_ASC_NODE":4.167,"ARG_OF_PERICENTER":29.7949,"MEAN_ANOMALY":326.0536,"EPHEMERIS_TYPE":0,"CLASSIFICATION_TYPE":"U","NORAD_CAT_ID":43231,"ELEMENT_SET_NO":999,"REV_AT_EPOCH":14846,"BSTAR":0,"MEAN_MOTION_DOT":-2.7e-7,"MEAN_MOTION_DDOT":0},{"OBJECT_NAME":"O3B FM16","OBJECT_ID":"2018-024B","EPOCH":"2026-04-26T18:33:32.966208","MEAN_MOTION":5.00115962,"ECCENTRICITY":0.0002681,"INCLINATION":0.0487,"RA_OF_ASC_NODE":8.2697,"ARG_OF_PERICENTER":24.1687,"MEAN_ANOMALY":327.5766,"EPHEMERIS_TYPE":0,"CLASSIFICATION_TYPE":"U","NORAD_CAT_ID":43232,"ELEMENT_SET_NO":999,"REV_AT_EPOCH":14837,"BSTAR":0,"MEAN_MOTION_DOT":-2.7e-7,"MEAN_MOTION_DDOT":0},{"OBJECT_NAME":"O3B FM14","OBJECT_ID":"2018-024C","EPOCH":"2026-04-26T00:20:54.276576","MEAN_MOTION":5.00115703,"ECCENTRICITY":0.00028607,"INCLINATION":0.0471,"RA_OF_ASC_NODE":8.2311,"ARG_OF_PERICENTER":27.6841,"MEAN_ANOMALY":324.1024,"EPHEMERIS_TYPE":0,"CLASSIFICATION_TYPE":"U","NORAD_CAT_ID":43233,"ELEMENT_SET_NO":999,"REV_AT_EPOCH":14834,"BSTAR":0,"MEAN_MOTION_DOT":-2.7e-7,"MEAN_MOTION_DDOT":0},{"OBJECT_NAME":"O3B FM13","OBJECT_ID":"2018-024D","EPOCH":"2026-04-26T01:55:44.770656","MEAN_MOTION":5.00115553,"ECCENTRICITY":0.00035807,"INCLINATION":0.0556,"RA_OF_ASC_NODE":328.9915,"ARG_OF_PERICENTER":21.8257,"MEAN_ANOMALY":9.1746,"EPHEMERIS_TYPE":0,"CLASSIFICATION_TYPE":"U","NORAD_CAT_ID":43234,"ELEMENT_SET_NO":999,"REV_AT_EPOCH":14845,"BSTAR":0,"MEAN_MOTION_DOT":-2.7e-7,"MEAN_MOTION_DDOT":0}]
